NORAD_CAT_ID,OBJECT_NAME,OBJECT_TYPE,EPOCH,MEAN_MOTION,ECCENTRICITY,INCLINATION,RA_OF_ASC_NODE,ARG_OF_PERICENTER,MEAN_ANOMALY,BSTAR,MEAN_MOTION_DOT,MEAN_MOTION_DDOT,TLE_LINE0,TLE_LINE1,TLE_LINE2,SEMIMAJOR_AXIS,PERIOD,APOGEE,PERIGEE,DECAYED
53528.0,STARLINK-4503,PAYLOAD,2022-12-29 00:38:45,15.08838731,0.0002508,53.2179,271.4747,29.014,331.0991,-8.3443e-05,-1.616e-05,0.0,0 STARLINK-4503,1 53528U 22101B   22363.02691121 -.00001616  00000-0 -83443-4 0  9999,2 53528  53.2179 271.4747 0002508  29.0140 331.0991 15.08838731 20030,6917.884,95.438,541.484,538.014,0.0
53528.0,STARLINK-4503,PAYLOAD,2022-12-29 22:54:10,15.08824941,0.0002674,53.2168,267.311,23.4083,336.7030000000001,-0.00017796,-3.119e-05,0.0,0 STARLINK-4503,1 53528U 22101B   22363.95428786 -.00003119  00000-0 -17796-3 0  9993,2 53528  53.2168 267.3110 0002674  23.4083 336.7030 15.08824941 20173,6917.926,95.439,541.641,537.942,0.0
53528.0,STARLINK-4503,PAYLOAD,2022-12-30 03:40:19,15.08830055,0.0002475,53.2171,266.4153,39.5901,320.5271,-0.00016931,-2.981e-05,0.0,0 STARLINK-4503,1 53528U 22101B   22364.15300520 -.00002981  00000-0 -16931-3 0  9997,2 53528  53.2171 266.4153 0002475  39.5901 320.5271 15.08830055 20205,6917.911,95.438,541.488,538.064,0.0
53528.0,STARLINK-4503,PAYLOAD,2022-12-30 17:58:47,15.08828747,0.0002457,53.2178,263.7426,34.1668,325.9482,0.00025839,3.825e-05,0.0,0 STARLINK-4503,1 53528U 22101B   22364.74915774  .00003825  00000-0  25839-3 0  9998,2 53528  53.2178 263.7426 0002457  34.1668 325.9482 15.08828747 20293,6917.915,95.438,541.48,538.08,0.0
53528.0,STARLINK-4503,PAYLOAD,2022-12-31 09:52:39,15.08840693,0.0002338,53.2171,260.7699,40.604,319.5126,0.00031185,4.678e-05,0.0,0 STARLINK-4503,1 53528U 22101B   22365.41156271  .00004678  00000-0  31185-3 0  9990,2 53528  53.2171 260.7699 0002338  40.6040 319.5126 15.08840693 20398,6917.878000000002,95.438,541.361,538.126,0.0
53528.0,STARLINK-4503,PAYLOAD,2022-12-31 17:49:33,15.08872235,0.0002299,53.2173,259.2826,37.3974,322.7178,-0.00062817,-0.00010281,0.0,0 STARLINK-4503,1 53528U 22101B   22365.74275066 -.00010281  00000-0 -62817-3 0  9995,2 53528  53.2173 259.2826 0002299  37.3974 322.7178 15.08872235 20446,6917.781999999997,95.436,541.237,538.056,0.0
53528.0,STARLINK-4503,PAYLOAD,2023-01-01 03:21:54,15.08824094,0.0002468,53.2177,257.4984,39.2694,320.8477,8.2158e-06,-1.58e-06,0.0,0 STARLINK-4503,1 53528U 22101B   23001.14021768 -.00000158  00000-0  82158-5 0  9998,2 53528  53.2177 257.4984 0002468  39.2694 320.8477 15.08824094 20501,6917.929,95.439,541.501,538.087,0.0
53528.0,STARLINK-4503,PAYLOAD,2023-01-01 09:43:26,15.0882853,0.0002513,53.2167,256.3073,37.7615,322.3553,-7.9247e-05,-1.549e-05,0.0,0 STARLINK-4503,1 53528U 22101B   23001.40517129 -.00001549  00000-0 -79247-4 0  9998,2 53528  53.2167 256.3073 0002513  37.7615 322.3553 15.08828530 20549,6917.915,95.438,541.519,538.0419999999998,0.0
53528.0,STARLINK-4503,PAYLOAD,2023-01-01 20:51:09,15.08822305,0.0002331999999999,53.2165,254.2261,37.6961,322.4194,-0.00022144,-3.809e-05,0.0,0 STARLINK-4503,1 53528U 22101B   23001.86885763 -.00003809  00000-0 -22144-3 0  9994,2 53528  53.2165 254.2261 0002332  37.6961 322.4194 15.08822305 20619,6917.934,95.439,541.413,538.186,0.0
53528.0,STARLINK-4503,PAYLOAD,2023-01-02 09:34:14,15.08833807,0.0002384999999999,53.2171,251.847,38.0755,322.0406,-1.2989e-05,-4.95e-06,0.0,0 STARLINK-4503,1 53528U 22101B   23002.39878017 -.00000495  00000-0 -12989-4 0  9992,2 53528  53.2171 251.8470 0002385  38.0755 322.0406 15.08833807 20694,6917.899,95.438,541.414,538.114,0.0
53528.0,STARLINK-4503,PAYLOAD,2023-01-02 17:31:10,15.08834874,0.0002302,53.2169,250.36,35.2709,324.8435,7.7254e-05,9.41e-06,0.0,0 STARLINK-4503,1 53528U 22101B   23002.72997794  .00000941  00000-0  77254-4 0  9993,2 53528  53.2169 250.3600 0002302  35.2709 324.8435 15.08834874 20740,6917.896,95.438,541.354,538.169,0.0
53528.0,STARLINK-4503,PAYLOAD,2023-01-03 09:25:00,15.08848041,0.000237,53.217,247.3865,37.3958,322.7199,0.00019352,2.794e-05,0.0,0 STARLINK-4503,1 53528U 22101B   23003.39236950  .00002794  00000-0  19352-3 0  9999,2 53528  53.2170 247.3865 0002370  37.3958 322.7199 15.08848041 20841,6917.856,95.437,541.36,538.081,0.0
53528.0,STARLINK-4503,PAYLOAD,2023-01-03 15:46:33,15.08842378,0.0002311,53.217,246.1971,37.3112,322.8041,0.00022443,3.286e-05,0.0,0 STARLINK-4503,1 53528U 22101B   23003.65733326  .00003286  00000-0  22443-3 0  9999,2 53528  53.2170 246.1971 0002311  37.3112 322.8041 15.08842378 20881,6917.873000000001,95.437,541.337,538.139,0.0
53528.0,STARLINK-4503,PAYLOAD,2023-01-04 01:18:52,15.08844176,0.0002304,53.2162,244.4126,37.4551,322.6601,0.0002723,4.049e-05,0.0,0 STARLINK-4503,1 53528U 22101B   23004.05477684  .00004049  00000-0  27230-3 0  9993,2 53528  53.2162 244.4126 0002304  37.4551 322.6601 15.08844176 20940,6917.868,95.437,541.327,538.139,0.0
53528.0,STARLINK-4503,PAYLOAD,2023-01-04 21:58:53,15.08848087,0.0002287,53.2163,240.5466,39.5196,320.5963,0.00027747,4.131e-05,0.0,0 STARLINK-4503,1 53528U 22101B   23004.91589279  .00004131  00000-0  27747-3 0  9997,2 53528  53.2163 240.5466 0002287  39.5196 320.5963 15.08848087 21071,6917.856,95.437,541.303,538.139,0.0
53528.0,STARLINK-4503,PAYLOAD,2023-01-05 01:09:38,15.08855643,0.0002311999999999,53.2159,239.9509,42.9785,317.1388,0.00014941,2.091e-05,0.0,0 STARLINK-4503,1 53528U 22101B   23005.04836705  .00002091  00000-0  14941-3 0  9996,2 53528  53.2159 239.9509 0002312  42.9785 317.1388 15.08855643 21098,6917.833000000001,95.437,541.297,538.0980000000002,0.0
53528.0,STARLINK-4503,PAYLOAD,2023-01-05 09:06:34,15.0884768,0.0002376999999999,53.2159,238.4655,40.8517,319.2653,2.7114e-05,1.43e-06,0.0,0 STARLINK-4503,1 53528U 22101B   23005.37956998  .00000143  00000-0  27114-4 0  9992,2 53528  53.2159 238.4655 0002377  40.8517 319.2653 15.08847680 21141,6917.857,95.437,541.366,538.078,0.0
53528.0,STARLINK-4503,PAYLOAD,2023-01-06 15:18:54,15.08845021,0.000224,53.2152,232.8156,44.573,315.5442,4.479100000000001e-05,4.25e-06,0.0,0 STARLINK-4503,1 53528U 22101B   23006.63813408  .00000425  00000-0  44791-4 0  9993,2 53528  53.2152 232.8156 0002240  44.5730 315.5442 15.08845021 21338,6917.865,95.437,541.28,538.18,0.0
53528.0,STARLINK-4503,PAYLOAD,2023-01-07 00:51:13,15.08850465,0.000225,53.2148,231.0315,46.3014,313.8164,0.00030142,4.514e-05,0.0,0 STARLINK-4503,1 53528U 22101B   23007.03557265  .00004514  00000-0  30142-3 0  9991,2 53528  53.2148 231.0315 0002250  46.3014 313.8164 15.08850465 21393,6917.848000000001,95.437,541.27,538.1569999999998,0.0
53528.0,STARLINK-4503,PAYLOAD,2023-01-07 15:09:42,15.08839195,0.000225,53.2128,228.3537,60.7849,299.3368,0.00022023,3.218e-05,0.0,0 STARLINK-4503,1 53528U 22101B   23007.63173796  .00003218  00000-0  22023-3 0  9999,2 53528  53.2128 228.3537 0002250  60.7849 299.3368 15.08839195 21483,6917.883000000002,95.438,541.304,538.191,0.0
53528.0,STARLINK-4503,PAYLOAD,2023-01-07 21:31:14,15.08840769,0.0002262,53.2127,227.1647,57.7598,302.3613,0.00017571,2.509e-05,0.0,0 STARLINK-4503,1 53528U 22101B   23007.89669712  .00002509  00000-0  17571-3 0  9999,2 53528  53.2127 227.1647 0002262  57.7598 302.3613 15.08840769 21523,6917.8780000000015,95.438,541.308,538.178,0.0
53528.0,STARLINK-4503,PAYLOAD,2023-01-08 07:03:33,15.08837559,0.0002175,53.2146,225.3809,50.6109,309.5075,8.653899999999999e-05,1.089e-05,0.0,0 STARLINK-4503,1 53528U 22101B   23008.29413930  .00001089  00000-0  86539-4 0  9996,2 53528  53.2146 225.3809 0002175  50.6109 309.5075 15.08837559 21587,6917.888000000001,95.438,541.257,538.248,0.0
53528.0,STARLINK-4503,PAYLOAD,2023-01-08 15:00:29,15.08838004,0.0002187,53.2147,223.8943,54.2836,305.836,-1.5639e-05,-5.37e-06,0.0,0 STARLINK-4503,1 53528U 22101B   23008.62533950 -.00000537  00000-0 -15639-4 0  9990,2 53528  53.2147 223.8943 0002187  54.2836 305.8360 15.08838004 21638,6917.886,95.438,541.264,538.239,0.0
53528.0,STARLINK-4503,PAYLOAD,2023-01-08 21:22:01,15.08841745,0.0002185,53.2147,222.7049,55.2026,304.9172,4.38e-05,4.09e-06,0.0,0 STARLINK-4503,1 53528U 22101B   23008.89029776  .00000409  00000-0  43800-4 0  9992,2 53528  53.2147 222.7049 0002185  55.2026 304.9172 15.08841745 21674,6917.875,95.437,541.252,538.2280000000002,0.0
53528.0,STARLINK-4503,PAYLOAD,2023-01-09 14:51:16,15.08835791,0.0002131,53.215,219.4338,56.6511,303.4685,2.6686e-05,1.36e-06,0.0,0 STARLINK-4503,1 53528U 22101B   23009.61894195  .00000136  00000-0  26686-4 0  9998,2 53528  53.2150 219.4338 0002131  56.6511 303.4685 15.08835791 21786,6917.893,95.438,541.232,538.284,0.0
53528.0,STARLINK-4503,PAYLOAD,2023-01-10 06:45:07,15.08840006,0.0002148,53.2149,216.4599,59.1386,300.9817,7.3162e-05,8.76e-06,0.0,0 STARLINK-4503,1 53528U 22101B   23010.28134082  .00000876  00000-0  73162-4 0  9997,2 53528  53.2149 216.4599 0002148  59.1386 300.9817 15.08840006 21881,6917.88,95.438,541.231,538.259,0.0
53528.0,STARLINK-4503,PAYLOAD,2023-01-10 08:20:30,15.08841142,0.0002106,53.2147,216.1626,58.8811,301.2387,6.9382e-05,8.16e-06,0.0,0 STARLINK-4503,1 53528U 22101B   23010.34758007  .00000816  00000-0  69382-4 0  9996,2 53528  53.2147 216.1626 0002106  58.8811 301.2387 15.08841142 21899,6917.877,95.437,541.1990000000002,538.285,0.0
53528.0,STARLINK-4503,PAYLOAD,2023-01-10 16:17:26,15.08840213,0.0002108,53.2146,214.6757,61.1349,298.9855,0.00011055,1.472e-05,0.0,0 STARLINK-4503,1 53528U 22101B   23010.67878096  .00001472  00000-0  11055-3 0  9995,2 53528  53.2146 214.6757 0002108  61.1349 298.9855 15.08840213 21947,6917.88,95.438,541.203,538.286,0.0
53528.0,STARLINK-4503,PAYLOAD,2023-01-11 08:11:17,15.08843521,0.0002126,53.2147,211.7021,62.8023,297.3185,0.00013389,1.843e-05,0.0,0 STARLINK-4503,1 53528U 22101B   23011.34117998  .00001843  00000-0  13389-3 0  9991,2 53528  53.2147 211.7021 0002126  62.8023 297.3185 15.08843521 22043,6917.87,95.437,541.205,538.264,0.0
